{
    "links": {
        "self": "http://www.neowsapp.com/rest/v1/neo/54088821?api_key=iIulBulltgU6a56xZRHN4H3l9WmuAYTsLGpBGhQ2"
    },
    "id": "54088821",
    "neo_reference_id": "54088821",
    "name": "(2020 WX)",
    "designation": "2020 WX",
    "nasa_jpl_url": "http://ssd.jpl.nasa.gov/sbdb.cgi?sstr=54088821",
    "absolute_magnitude_h": 23.637,
    "estimated_diameter": {
        "kilometers": {
            "estimated_diameter_min": 0.0497914733,
            "estimated_diameter_max": 0.1113371189
        },
        "meters": {
            "estimated_diameter_min": 49.7914732572,
            "estimated_diameter_max": 111.3371189029
        },
        "miles": {
            "estimated_diameter_min": 0.0309389775,
            "estimated_diameter_max": 0.0691816569
        },
        "feet": {
            "estimated_diameter_min": 163.3578571211,
            "estimated_diameter_max": 365.2792731814
        }
    },
    "is_potentially_hazardous_asteroid": false,
    "close_approach_data": [
        {
            "close_approach_date": "2015-05-11",
            "close_approach_date_full": "2015-May-11 04:48",
            "epoch_date_close_approach": 1431319680000,
            "relative_velocity": {
                "kilometers_per_second": "13.54559012",
                "kilometers_per_hour": "48764.1244319492",
                "miles_per_hour": "30300.1305393965"
            },
            "miss_distance": {
                "astronomical": "0.4943412842",
                "lunar": "192.2987595538",
                "kilometers": "73952403.169384654",
                "miles": "45951892.5118860652"
            },
            "orbiting_body": "Earth"
        },
        {
            "close_approach_date": "2020-03-02",
            "close_approach_date_full": "2020-Mar-02 20:34",
            "epoch_date_close_approach": 1583181240000,
            "relative_velocity": {
                "kilometers_per_second": "10.6961916041",
                "kilometers_per_hour": "38506.2897747074",
                "miles_per_hour": "23926.3109991786"
            },
            "miss_distance": {
                "astronomical": "0.085553569",
                "lunar": "33.280338341",
                "kilometers": "12798631.69329803",
                "miles": "7952700.962571614"
            },
            "orbiting_body": "Mars"
        },
        {
            "close_approach_date": "2020-11-22",
            "close_approach_date_full": "2020-Nov-22 17:39",
            "epoch_date_close_approach": 1606066740000,
            "relative_velocity": {
                "kilometers_per_second": "13.9622626404",
                "kilometers_per_hour": "50264.1455052877",
                "miles_per_hour": "31232.1853002161"
            },
            "miss_distance": {
                "astronomical": "0.2696857116",
                "lunar": "104.9077418124",
                "kilometers": "40344408.024794292",
                "miles": "25068852.6884615496"
            },
            "orbiting_body": "Earth"
        },
        {
            "close_approach_date": "2026-05-24",
            "close_approach_date_full": "2026-May-24 09:43",
            "epoch_date_close_approach": 1779615780000,
            "relative_velocity": {
                "kilometers_per_second": "13.6930676878",
                "kilometers_per_hour": "49295.0436759511",
                "miles_per_hour": "30630.0231107597"
            },
            "miss_distance": {
                "astronomical": "0.4329080047",
                "lunar": "168.4012138283",
                "kilometers": "64762115.409069989",
                "miles": "40241312.5007402882"
            },
            "orbiting_body": "Earth"
        }
    ],
    "orbital_data": {
        "orbit_id": "7",
        "orbit_determination_date": "2020-11-26 05:21:13",
        "first_observation_date": "2020-11-16",
        "last_observation_date": "2020-11-26",
        "data_arc_in_days": 10,
        "observations_used": 33,
        "orbit_uncertainty": "8",
        "minimum_orbit_intersection": ".264494",
        "jupiter_tisserand_invariant": "4.764",
        "epoch_osculation": "2459171.5",
        "eccentricity": ".07335171185075948",
        "semi_major_axis": "1.347078891449196",
        "inclination": "27.36185635129123",
        "ascending_node_longitude": "64.14458038794915",
        "orbital_period": "571.068194803476",
        "perihelion_distance": "1.248268348763374",
        "perihelion_argument": "343.1780240842024",
        "aphelion_distance": "1.445889434135018",
        "perihelion_time": "2459161.375171047573",
        "mean_anomaly": "6.382667527348581",
        "mean_motion": ".6303975659577544",
        "equinox": "J2000",
        "orbit_class": {
            "orbit_class_type": "AMO",
            "orbit_class_description": "Near-Earth asteroid orbits similar to that of 1221 Amor",
            "orbit_class_range": "1.017 AU < q (perihelion) < 1.3 AU"
        }
    },
    "is_sentry_object": false
}